GLOBALSTAR M084         
1 38040U 11080A   25179.85926230 -.00000098  00000+0  34970-4 0  9998
2 38040  52.0029  12.9404 0001148  79.4712 293.4882 12.62266870624423
GLOBALSTAR M080         
1 38041U 11080B   25179.83086403 -.00000099  00000+0  27396-4 0  9991
2 38041  52.0080  14.6229 0000828 117.5581 255.8014 12.62263603624405
GLOBALSTAR M082         
1 38042U 11080C   25179.62327997 -.00000103  00000+0  61026-5 0  9990
2 38042  52.0090 330.7167 0000775 135.7800 304.5551 12.62266847624947
GLOBALSTAR M092         
1 38043U 11080D   25179.45850955 -.00000089  00000+0  84372-4 0  9998
2 38043  52.0096  61.5949 0000756  66.8870 104.2218 12.62264403623378
GLOBALSTAR M090         
1 38044U 11080E   25179.56929087 -.00000099  00000+0  24422-4 0  9995
2 38044  52.0141 324.7202 0000665 117.5072 318.6601 12.62273726625099
GLOBALSTAR M086         
1 38045U 11080F   25179.59975962 -.00000083  00000+0  11358-3 0  9998
2 38045  51.9916 325.1313 0000963  31.8667  63.2207 12.62272017625003
GLOBALSTAR M097         
1 39072U 13005A   25179.52623089 -.00000089  00000+0  79956-4 0  9996
2 39072  52.0032 239.9141 0000193 160.6095 199.4779 12.62265552572246
GLOBALSTAR M093         
1 39073U 13005B   25179.49990419 -.00000088  00000+0  85985-4 0  9995
2 39073  51.9793 233.2794 0000214 184.2745 175.8119 12.62265839572196
